STARLINK-2740           
1 48690U 21044BE  26068.39465036  .00000738  00000+0  37045-4 0  9996
2 48690  53.1612  76.6888 0001278  99.2058 260.9087 15.30199466264313
TEVEL2-3                
1 63218U 25052J   26068.64540225  .00020365  00000+0  69446-3 0  9991
2 63218  97.3994 324.7775 0004761 105.7353 254.4413 15.30377031 54855
